{
  "type": "FeatureCollection",
  "features": [
    {
      "type": "Feature",
      "properties": {
        "norad_id": 66529,
        "name": "STARLINK-35933",
        "group": "last-30-days",
        "lat": 36.12921320933232,
        "lon": 85.87486765291172,
        "alt_km": 438.91926473044623,
        "timestamp": "2025-12-16T03:53:25.815154+00:00",
        "meta_object_name": "STARLINK-35933",
        "meta_object_id": "2025-265P",
        "meta_epoch": "2025-12-15T08:00:01.999872",
        "meta_mean_motion": 15.40698627,
        "meta_eccentricity": 0.00011654,
        "meta_inclination": 43.0004,
        "meta_ra_of_asc_node": 39.0818,
        "meta_arg_of_pericenter": 272.5558,
        "meta_mean_anomaly": 225.2184,
        "meta_ephemeris_type": 0,
        "meta_classification_type": "U",
        "meta_norad_cat_id": 66529,
        "meta_element_set_no": 999,
        "meta_rev_at_epoch": 541,
        "meta_bstar": -1.1784886e-05,
        "meta_mean_motion_dot": -7.95e-06,
        "meta_mean_motion_ddot": 0,
        "tle_line1": "1 66529U 25265P   25349.33335648 -.00000795  00000+0 -11785-4 0  9994",
        "tle_line2": "2 66529  43.0004  39.0818 0001165 272.5558 225.2184 15.40698627  5419"
      },
      "geometry": {
        "type": "Point",
        "coordinates": [
          85.87486765291172,
          36.12921320933232
        ]
      }
    },
    {
      "type": "Feature",
      "properties": {
        "norad_id": 66530,
        "name": "STARLINK-35961",
        "group": "last-30-days",
        "lat": 42.759354067314916,
        "lon": 117.13023068988194,
        "alt_km": 437.9748470436916,
        "timestamp": "2025-12-16T03:53:25.815165+00:00",
        "meta_object_name": "STARLINK-35961",
        "meta_object_id": "2025-265Q",
        "meta_epoch": "2025-12-15T08:00:01.999872",
        "meta_mean_motion": 15.4069616,
        "meta_eccentricity": 0.00011145,
        "meta_inclination": 43.0005,
        "meta_ra_of_asc_node": 39.0226,
        "meta_arg_of_pericenter": 271.4665,
        "meta_mean_anomaly": 251.1862,
        "meta_ephemeris_type": 0,
        "meta_classification_type": "U",
        "meta_norad_cat_id": 66530,
        "meta_element_set_no": 999,
        "meta_rev_at_epoch": 541,
        "meta_bstar": 0.00015776216,
        "meta_mean_motion_dot": 6.291e-05,
        "meta_mean_motion_ddot": 0,
        "tle_line1": "1 66530U 25265Q   25349.33335648  .00006291  00000+0  15776-3 0  9994",
        "tle_line2": "2 66530  43.0005  39.0226 0001114 271.4665 251.1862 15.40696160  5417"
      },
      "geometry": {
        "type": "Point",
        "coordinates": [
          117.13023068988194,
          42.759354067314916
        ]
      }
    },
    {
      "type": "Feature",
      "properties": {
        "norad_id": 66531,
        "name": "STARLINK-35960",
        "group": "last-30-days",
        "lat": 39.93165036446727,
        "lon": 150.2524678178347,
        "alt_km": 438.5399442769967,
        "timestamp": "2025-12-16T03:53:25.815178+00:00",
        "meta_object_name": "STARLINK-35960",
        "meta_object_id": "2025-265R",
        "meta_epoch": "2025-12-15T08:00:01.999872",
        "meta_mean_motion": 15.40696428,
        "meta_eccentricity": 0.00012724,
        "meta_inclination": 43.0004,
        "meta_ra_of_asc_node": 38.961,
        "meta_arg_of_pericenter": 291.4617,
        "meta_mean_anomaly": 256.0738,
        "meta_ephemeris_type": 0,
        "meta_classification_type": "U",
        "meta_norad_cat_id": 66531,
        "meta_element_set_no": 999,
        "meta_rev_at_epoch": 541,
        "meta_bstar": 9.5635284e-05,
        "meta_mean_motion_dot": 3.693e-05,
        "meta_mean_motion_ddot": 0,
        "tle_line1": "1 66531U 25265R   25349.33335648  .00003693  00000+0  95635-4 0  9991",
        "tle_line2": "2 66531  43.0004  38.9610 0001272 291.4617 256.0738 15.40696428  5419"
      },
      "geometry": {
        "type": "Point",
        "coordinates": [
          150.2524678178347,
          39.93165036446727
        ]
      }
    },
    {
      "type": "Feature",
      "properties": {
        "norad_id": 66532,
        "name": "STARLINK-35914",
        "group": "last-30-days",
        "lat": 29.04147602539097,
        "lon": 177.54978883781402,
        "alt_km": 440.3684720992878,
        "timestamp": "2025-12-16T03:53:25.815189+00:00",
        "meta_object_name": "STARLINK-35914",
        "meta_object_id": "2025-265S",
        "meta_epoch": "2025-12-15T08:00:01.999872",
        "meta_mean_motion": 15.40688674,
        "meta_eccentricity": 0.0001527,
        "meta_inclination": 43,
        "meta_ra_of_asc_node": 38.9007,
        "meta_arg_of_pericenter": 285.1276,
        "meta_mean_anomaly": 287.303,
        "meta_ephemeris_type": 0,
        "meta_classification_type": "U",
        "meta_norad_cat_id": 66532,
        "meta_element_set_no": 999,
        "meta_rev_at_epoch": 541,
        "meta_bstar": 0.00020517324,
        "meta_mean_motion_dot": 8.273e-05,
        "meta_mean_motion_ddot": 0,
        "tle_line1": "1 66532U 25265S   25349.33335648  .00008273  00000+0  20517-3 0  9997",
        "tle_line2": "2 66532  43.0000  38.9007 0001527 285.1276 287.3030 15.40688674  5416"
      },
      "geometry": {
        "type": "Point",
        "coordinates": [
          177.54978883781402,
          29.04147602539097
        ]
      }
    },
    {
      "type": "Feature",
      "properties": {
        "norad_id": 66533,
        "name": "STARLINK-35707",
        "group": "last-30-days",
        "lat": -24.506720510853274,
        "lon": -116.79349909479275,
        "alt_km": 416.2324341037611,
        "timestamp": "2025-12-16T03:53:25.815200+00:00",
        "meta_object_name": "STARLINK-35707",
        "meta_object_id": "2025-265T",
        "meta_epoch": "2025-12-13T20:51:14.754528",
        "meta_mean_motion": 15.50564385,
        "meta_eccentricity": 0.00024505,
        "meta_inclination": 42.9992,
        "meta_ra_of_asc_node": 47.3369,
        "meta_arg_of_pericenter": 286.6299,
        "meta_mean_anomaly": 73.4292,
        "meta_ephemeris_type": 0,
        "meta_classification_type": "U",
        "meta_norad_cat_id": 66533,
        "meta_element_set_no": 999,
        "meta_rev_at_epoch": 393,
        "meta_bstar": 0.0012610474,
        "meta_mean_motion_dot": 0.00074308,
        "meta_mean_motion_ddot": 0,
        "tle_line1": "1 66533U 25265T   25347.86892077  .00074308  00000+0  12610-2 0  9994",
        "tle_line2": "2 66533  42.9992  47.3369 0002450 286.6299  73.4292 15.50564385  3939"
      },
      "geometry": {
        "type": "Point",
        "coordinates": [
          -116.79349909479275,
          -24.506720510853274
        ]
      }
    },
    {
      "type": "Feature",
      "properties": {
        "norad_id": 66534,
        "name": "STARLINK-35976",
        "group": "last-30-days",
        "lat": -25.188293089239945,
        "lon": -115.76641673632571,
        "alt_km": 416.18148336890044,
        "timestamp": "2025-12-16T03:53:25.815211+00:00",
        "meta_object_name": "STARLINK-35976",
        "meta_object_id": "2025-265U",
        "meta_epoch": "2025-12-15T03:45:53.820288",
        "meta_mean_motion": 15.50660145,
        "meta_eccentricity": 0.00014712,
        "meta_inclination": 42.9975,
        "meta_ra_of_asc_node": 39.8011,
        "meta_arg_of_pericenter": 259.3287,
        "meta_mean_anomaly": 100.7408,
        "meta_ephemeris_type": 0,
        "meta_classification_type": "U",
        "meta_norad_cat_id": 66534,
        "meta_element_set_no": 999,
        "meta_rev_at_epoch": 413,
        "meta_bstar": 0.00091597059,
        "meta_mean_motion_dot": 0.00053921,
        "meta_mean_motion_ddot": 0,
        "tle_line1": "1 66534U 25265U   25349.15687292  .00053921  00000+0  91597-3 0  9990",
        "tle_line2": "2 66534  42.9975  39.8011 0001471 259.3287 100.7408 15.50660145  4134"
      },
      "geometry": {
        "type": "Point",
        "coordinates": [
          -115.76641673632571,
          -25.188293089239945
        ]
      }
    },
    {
      "type": "Feature",
      "properties": {
        "norad_id": 66535,
        "name": "STARLINK-35514",
        "group": "last-30-days",
        "lat": -26.987197455255956,
        "lon": -112.96684667827223,
        "alt_km": 415.34333162389703,
        "timestamp": "2025-12-16T03:53:25.815222+00:00",
        "meta_object_name": "STARLINK-35514",
        "meta_object_id": "2025-265V",
        "meta_epoch": "2025-12-14T10:45:04.309920",
        "meta_mean_motion": 15.50620505,
        "meta_eccentricity": 0.00016527,
        "meta_inclination": 43.0008,
        "meta_ra_of_asc_node": 43.9405,
        "meta_arg_of_pericenter": 257.8771,
        "meta_mean_anomaly": 102.1904,
        "meta_ephemeris_type": 0,
        "meta_classification_type": "U",
        "meta_norad_cat_id": 66535,
        "meta_element_set_no": 999,
        "meta_rev_at_epoch": 402,
        "meta_bstar": 0.0022722023,
        "meta_mean_motion_dot": 0.0013549,
        "meta_mean_motion_ddot": 0,
        "tle_line1": "1 66535U 25265V   25348.44796655  .00135490  00000+0  22722-2 0  9991",
        "tle_line2": "2 66535  43.0008  43.9405 0001652 257.8771 102.1904 15.50620505  4020"
      },
      "geometry": {
        "type": "Point",
        "coordinates": [
          -112.96684667827223,
          -26.987197455255956
        ]
      }
    }
  ]
}